SENTINEL-2A             
1 40697U 15028A   26186.60629553  .00000565  00000+0  23219-3 0  9996
2 40697  98.5677 261.1967 0001224  94.8488 265.2834 14.30822338576363
SENTINEL-2B             
1 42063U 17013A   26186.59909387  .00000398  00000+0  16830-3 0  9990
2 42063  98.5684 261.1137 0001207  88.3280 271.8041 14.30814246487271
SENTINEL-2C             
1 60989U 24157A   26186.21449580  .00000181  00000+0  85755-4 0  9990
2 60989  98.5686 260.7412 0000935  94.1003 266.0286 14.30813996 95561
