{"fetched_at":"2026-07-06T08:47:19.709Z","source":"https://celestrak.org/NORAD/elements/gp.php?NAME=SENTINEL&FORMAT=JSON","constellation":"sentinel-2","records":[{"OBJECT_NAME":"SENTINEL-2A","OBJECT_ID":"2015-028A","EPOCH":"2026-07-05T14:33:03.933792","CLASSIFICATION_TYPE":"U","MEAN_MOTION":14.30822338,"ECCENTRICITY":0.00012246,"INCLINATION":98.5677,"RA_OF_ASC_NODE":261.1967,"ARG_OF_PERICENTER":94.8488,"MEAN_ANOMALY":265.2834,"EPHEMERIS_TYPE":0,"NORAD_CAT_ID":40697,"ELEMENT_SET_NO":999,"REV_AT_EPOCH":57636,"BSTAR":0.0002321893,"MEAN_MOTION_DOT":0.00000565,"MEAN_MOTION_DDOT":0},{"OBJECT_NAME":"SENTINEL-2B","OBJECT_ID":"2017-013A","EPOCH":"2026-07-05T14:22:41.710368","CLASSIFICATION_TYPE":"U","MEAN_MOTION":14.30814246,"ECCENTRICITY":0.00012072,"INCLINATION":98.5684,"RA_OF_ASC_NODE":261.1137,"ARG_OF_PERICENTER":88.328,"MEAN_ANOMALY":271.8041,"EPHEMERIS_TYPE":0,"NORAD_CAT_ID":42063,"ELEMENT_SET_NO":999,"REV_AT_EPOCH":48727,"BSTAR":0.0001683032,"MEAN_MOTION_DOT":0.00000398,"MEAN_MOTION_DDOT":0},{"OBJECT_NAME":"SENTINEL-2C","OBJECT_ID":"2024-157A","EPOCH":"2026-07-05T05:08:52.437120","CLASSIFICATION_TYPE":"U","MEAN_MOTION":14.30813996,"ECCENTRICITY":0.0000936,"INCLINATION":98.5686,"RA_OF_ASC_NODE":260.7412,"ARG_OF_PERICENTER":94.1003,"MEAN_ANOMALY":266.0286,"EPHEMERIS_TYPE":0,"NORAD_CAT_ID":60989,"ELEMENT_SET_NO":999,"REV_AT_EPOCH":9556,"BSTAR":0.000085755,"MEAN_MOTION_DOT":0.00000181,"MEAN_MOTION_DDOT":0}]}
